[{"OBJECT_NAME":"EUTELSAT 9B","OBJECT_ID":"2016-005A","EPOCH":"2026-03-15T06:42:38.858688","MEAN_MOTION":1.00273047,"ECCENTRICITY":0.00041319,"INCLINATION":0.0488,"RA_OF_ASC_NODE":69.6718,"ARG_OF_PERICENTER":263.2302,"MEAN_ANOMALY":309.6233,"EPHEMERIS_TYPE":0,"CLASSIFICATION_TYPE":"U","NORAD_CAT_ID":41310,"ELEMENT_SET_NO":999,"REV_AT_EPOCH":3717,"BSTAR":0,"MEAN_MOTION_DOT":6.1e-7,"MEAN_MOTION_DDOT":0},{"OBJECT_NAME":"EUTELSAT 65 WEST A","OBJECT_ID":"2016-014A","EPOCH":"2026-03-15T06:26:54.358080","MEAN_MOTION":1.00273602,"ECCENTRICITY":0.00021959,"INCLINATION":0.0611,"RA_OF_ASC_NODE":19.8078,"ARG_OF_PERICENTER":332.9199,"MEAN_ANOMALY":211.6638,"EPHEMERIS_TYPE":0,"CLASSIFICATION_TYPE":"U","NORAD_CAT_ID":41382,"ELEMENT_SET_NO":999,"REV_AT_EPOCH":3659,"BSTAR":0,"MEAN_MOTION_DOT":-2.77e-6,"MEAN_MOTION_DDOT":0},{"OBJECT_NAME":"EUTELSAT 117 WEST B","OBJECT_ID":"2016-038B","EPOCH":"2026-03-14T07:16:38.506080","MEAN_MOTION":1.00272184,"ECCENTRICITY":2.59e-5,"INCLINATION":0.0416,"RA_OF_ASC_NODE":6.7202,"ARG_OF_PERICENTER":285.2785,"MEAN_ANOMALY":232.0791,"EPHEMERIS_TYPE":0,"CLASSIFICATION_TYPE":"U","NORAD_CAT_ID":41589,"ELEMENT_SET_NO":999,"REV_AT_EPOCH":3571,"BSTAR":0,"MEAN_MOTION_DOT":-1.2e-7,"MEAN_MOTION_DDOT":0},{"OBJECT_NAME":"EUTELSAT 172B","OBJECT_ID":"2017-029B","EPOCH":"2026-03-14T21:18:24.459840","MEAN_MOTION":1.0027202,"ECCENTRICITY":1.919e-5,"INCLINATION":0.0193,"RA_OF_ASC_NODE":155.5552,"ARG_OF_PERICENTER":322.4499,"MEAN_ANOMALY":186.0796,"EPHEMERIS_TYPE":0,"CLASSIFICATION_TYPE":"U","NORAD_CAT_ID":42741,"ELEMENT_SET_NO":999,"REV_AT_EPOCH":3279,"BSTAR":0,"MEAN_MOTION_DOT":-7.0e-8,"MEAN_MOTION_DDOT":0},{"OBJECT_NAME":"EUTELSAT 7C","OBJECT_ID":"2019-034B","EPOCH":"2026-03-14T08:38:38.650848","MEAN_MOTION":1.00272124,"ECCENTRICITY":0.00032667,"INCLINATION":0.0713,"RA_OF_ASC_NODE":177.5871,"ARG_OF_PERICENTER":166.6147,"MEAN_ANOMALY":324.3914,"EPHEMERIS_TYPE":0,"CLASSIFICATION_TYPE":"U","NORAD_CAT_ID":44334,"ELEMENT_SET_NO":999,"REV_AT_EPOCH":588,"BSTAR":0,"MEAN_MOTION_DOT":4.7e-7,"MEAN_MOTION_DDOT":0},{"OBJECT_NAME":"EUTELSAT 5 WEST B","OBJECT_ID":"2019-067A","EPOCH":"2026-03-15T05:01:25.057056","MEAN_MOTION":1.002717,"ECCENTRICITY":0.00031825,"INCLINATION":0.0783,"RA_OF_ASC_NODE":324.8861,"ARG_OF_PERICENTER":40.328,"MEAN_ANOMALY":237.9446,"EPHEMERIS_TYPE":0,"CLASSIFICATION_TYPE":"U","NORAD_CAT_ID":44624,"ELEMENT_SET_NO":999,"REV_AT_EPOCH":2349,"BSTAR":0,"MEAN_MOTION_DOT":-4.3e-7,"MEAN_MOTION_DDOT":0},{"OBJECT_NAME":"EUTELSAT KONNECT","OBJECT_ID":"2020-005B","EPOCH":"2026-03-14T08:32:38.740416","MEAN_MOTION":1.00272524,"ECCENTRICITY":0.00010466,"INCLINATION":0.0668,"RA_OF_ASC_NODE":97.4929,"ARG_OF_PERICENTER":221.3319,"MEAN_ANOMALY":348.5168,"EPHEMERIS_TYPE":0,"CLASSIFICATION_TYPE":"U","NORAD_CAT_ID":45027,"ELEMENT_SET_NO":999,"REV_AT_EPOCH":2338,"BSTAR":0,"MEAN_MOTION_DOT":4.9e-7,"MEAN_MOTION_DDOT":0},{"OBJECT_NAME":"EUTELSAT QUANTUM","OBJECT_ID":"2021-069B","EPOCH":"2026-03-15T05:16:23.621376","MEAN_MOTION":1.00272488,"ECCENTRICITY":0.00025811,"INCLINATION":0.0235,"RA_OF_ASC_NODE":274.6879,"ARG_OF_PERICENTER":79.9969,"MEAN_ANOMALY":304.9318,"EPHEMERIS_TYPE":0,"CLASSIFICATION_TYPE":"U","NORAD_CAT_ID":49056,"ELEMENT_SET_NO":999,"REV_AT_EPOCH":1698,"BSTAR":0,"MEAN_MOTION_DOT":1.25e-6,"MEAN_MOTION_DDOT":0},{"OBJECT_NAME":"EUTELSAT KONNECT VHTS","OBJECT_ID":"2022-110A","EPOCH":"2026-03-15T05:03:32.352768","MEAN_MOTION":1.00269379,"ECCENTRICITY":0.00028319,"INCLINATION":0.0579,"RA_OF_ASC_NODE":104.1049,"ARG_OF_PERICENTER":226.3647,"MEAN_ANOMALY":280.9193,"EPHEMERIS_TYPE":0,"CLASSIFICATION_TYPE":"U","NORAD_CAT_ID":53765,"ELEMENT_SET_NO":999,"REV_AT_EPOCH":589,"BSTAR":0,"MEAN_MOTION_DOT":1.6e-7,"MEAN_MOTION_DDOT":0},{"OBJECT_NAME":"EUTELSAT HOTBIRD 13F","OBJECT_ID":"2022-134A","EPOCH":"2026-03-15T06:42:38.858688","MEAN_MOTION":1.00271779,"ECCENTRICITY":0.00020199,"INCLINATION":0.0604,"RA_OF_ASC_NODE":291.4865,"ARG_OF_PERICENTER":74.0949,"MEAN_ANOMALY":280.9548,"EPHEMERIS_TYPE":0,"CLASSIFICATION_TYPE":"U","NORAD_CAT_ID":54048,"ELEMENT_SET_NO":999,"REV_AT_EPOCH":1243,"BSTAR":0,"MEAN_MOTION_DOT":8.6e-7,"MEAN_MOTION_DDOT":0},{"OBJECT_NAME":"EUTELSAT HOTBIRD 13G","OBJECT_ID":"2022-146A","EPOCH":"2026-03-15T06:42:38.858688","MEAN_MOTION":1.00270845,"ECCENTRICITY":0.0001992,"INCLINATION":0.0479,"RA_OF_ASC_NODE":233.2617,"ARG_OF_PERICENTER":302.2114,"MEAN_ANOMALY":111.0527,"EPHEMERIS_TYPE":0,"CLASSIFICATION_TYPE":"U","NORAD_CAT_ID":54225,"ELEMENT_SET_NO":999,"REV_AT_EPOCH":652,"BSTAR":0,"MEAN_MOTION_DOT":8.6e-7,"MEAN_MOTION_DDOT":0},{"OBJECT_NAME":"EUTELSAT 10B","OBJECT_ID":"2022-157A","EPOCH":"2026-03-15T06:42:38.858688","MEAN_MOTION":1.00270181,"ECCENTRICITY":0.00021505,"INCLINATION":0.0578,"RA_OF_ASC_NODE":101.872,"ARG_OF_PERICENTER":5.862,"MEAN_ANOMALY":175.7922,"EPHEMERIS_TYPE":0,"CLASSIFICATION_TYPE":"U","NORAD_CAT_ID":54259,"ELEMENT_SET_NO":999,"REV_AT_EPOCH":1208,"BSTAR":0,"MEAN_MOTION_DOT":6.7e-7,"MEAN_MOTION_DDOT":0},{"OBJECT_NAME":"EUTELSAT 36D","OBJECT_ID":"2024-059A","EPOCH":"2026-03-15T05:13:01.443648","MEAN_MOTION":1.00271977,"ECCENTRICITY":2.639e-5,"INCLINATION":0.0031,"RA_OF_ASC_NODE":150.2408,"ARG_OF_PERICENTER":322.665,"MEAN_ANOMALY":174.0125,"EPHEMERIS_TYPE":0,"CLASSIFICATION_TYPE":"U","NORAD_CAT_ID":59346,"ELEMENT_SET_NO":999,"REV_AT_EPOCH":720,"BSTAR":0,"MEAN_MOTION_DOT":1.55e-6,"MEAN_MOTION_DDOT":0}]
